IRIDIUM 136             
1 42962U 17061H   24289.05808425 -.00000136  00000+0 -55595-4 0  9999
2 42962  86.3908 280.1971 0002078  93.6746 266.4688 14.34217117367387
